[{"OBJECT_NAME":"CS1","OBJECT_ID":"2021-088B","EPOCH":"2026-03-09T18:02:30.253920","MEAN_MOTION":15.31848439,"ECCENTRICITY":0.00141292,"INCLINATION":97.3882,"RA_OF_ASC_NODE":132.1684,"ARG_OF_PERICENTER":78.0335,"MEAN_ANOMALY":282.249,"EPHEMERIS_TYPE":0,"CLASSIFICATION_TYPE":"U","NORAD_CAT_ID":49261,"ELEMENT_SET_NO":999,"REV_AT_EPOCH":24518,"BSTAR":0.00051175576,"MEAN_MOTION_DOT":0.00015722,"MEAN_MOTION_DDOT":0},{"OBJECT_NAME":"YAOGAN-43 01A","OBJECT_ID":"2024-148A","EPOCH":"2026-03-10T00:09:07.136640","MEAN_MOTION":15.32738016,"ECCENTRICITY":0.00034906,"INCLINATION":35.0055,"RA_OF_ASC_NODE":53.2215,"ARG_OF_PERICENTER":348.6469,"MEAN_ANOMALY":11.4169,"EPHEMERIS_TYPE":0,"CLASSIFICATION_TYPE":"U","NORAD_CAT_ID":60458,"ELEMENT_SET_NO":999,"REV_AT_EPOCH":8720,"BSTAR":0.00060147276,"MEAN_MOTION_DOT":0.00019533,"MEAN_MOTION_DDOT":0}]
